NORAD_CAT_ID,OBJECT_NAME,OBJECT_TYPE,EPOCH,MEAN_MOTION,ECCENTRICITY,INCLINATION,RA_OF_ASC_NODE,ARG_OF_PERICENTER,MEAN_ANOMALY,BSTAR,MEAN_MOTION_DOT,MEAN_MOTION_DDOT,TLE_LINE0,TLE_LINE1,TLE_LINE2,SEMIMAJOR_AXIS,PERIOD,APOGEE,PERIGEE,DECAYED
55789.0,STARLINK-5815,PAYLOAD,2023-05-03 17:26:38,15.69929496,0.0003394,69.9981,343.7678,273.5856,86.4951,-1.6435e-06,-4.1e-06,0.0,0 STARLINK-5815,1 55789U 23028BA  23123.72682874 -.00000410  00000-0 -16435-5 0  9995,2 55789  69.9981 343.7678 0003394 273.5856  86.4951 15.69929496 10241,6737.236,91.724,361.387,356.814,0.0
55789.0,STARLINK-5815,PAYLOAD,2023-05-04 01:05:23,15.69937421,0.0003197,69.9978,342.8717,268.2466,91.8363,4.7537e-06,3.59e-06,0.0,0 STARLINK-5815,1 55789U 23028BA  23124.04540650  .00000359  00000-0  47537-5 0  9993,2 55789  69.9978 342.8717 0003197 268.2466  91.8363 15.69937421 10288,6737.213,91.723,361.232,356.924,0.0
55789.0,STARLINK-5815,PAYLOAD,2023-05-04 13:19:23,15.69938761,0.0003231,69.9974,341.4388,275.2693,84.8134,2.2531e-05,2.499e-05,0.0,0 STARLINK-5815,1 55789U 23028BA  23124.55513321  .00002499  00000-0  22531-4 0  9997,2 55789  69.9974 341.4388 0003231 275.2693  84.8134 15.69938761 10378,6737.209,91.723,361.251,356.897,0.0
55789.0,STARLINK-5815,PAYLOAD,2023-05-04 17:54:39,15.69934918,0.0002724,69.9986,340.9013,222.0718,138.0269,-1.2923e-05,-1.766e-05,0.0,0 STARLINK-5815,1 55789U 23028BA  23124.74629199 -.00001766  00000-0 -12923-4 0  9991,2 55789  69.9986 340.9013 0002724 222.0718 138.0269 15.69934918 10397,6737.22,91.724,360.92,357.25,0.0
55789.0,STARLINK-5815,PAYLOAD,2023-05-04 20:58:10,15.6993756,0.0002689,69.9985,340.543,254.4782,105.6117,-4.7208e-05,-5.887e-05,0.0,0 STARLINK-5815,1 55789U 23028BA  23124.87372974 -.00005887  00000-0 -47208-4 0  9993,2 55789  69.9985 340.5430 0002689 254.4782 105.6117 15.69937560 10427,6737.213,91.723,360.889,357.266,0.0
55789.0,STARLINK-5815,PAYLOAD,2023-05-04 22:29:56,15.69908099,0.0002651,69.9986,340.3639,244.5463,115.5458,9.3113e-06,9.07e-06,0.0,0 STARLINK-5815,1 55789U 23028BA  23124.93745585  .00000907  00000-0  93113-5 0  9995,2 55789  69.9986 340.3639 0002651 244.5463 115.5458 15.69908099 10425,6737.297,91.725,360.948,357.376,0.0
55789.0,STARLINK-5815,PAYLOAD,2023-05-05 16:50:56,15.69926486,0.000317,69.9987,338.2133,260.3248,99.7589,8.4696e-06,8.06e-06,0.0,0 STARLINK-5815,1 55789U 23028BA  23125.70204814  .00000806  00000-0  84696-5 0  9990,2 55789  69.9987 338.2133 0003170 260.3248  99.7589 15.69926486 10546,6737.244,91.724,361.245,356.974,0.0
55789.0,STARLINK-5815,PAYLOAD,2023-05-05 22:57:56,15.69938225,0.000342,69.9977,337.4968,261.8575,98.2232,1.2792e-05,1.326e-05,0.0,0 STARLINK-5815,1 55789U 23028BA  23125.95690615  .00001326  00000-0  12792-4 0  9990,2 55789  69.9977 337.4968 0003420 261.8575  98.2232 15.69938225 10586,6737.211,91.723,361.38,356.772,0.0
55789.0,STARLINK-5815,PAYLOAD,2023-05-06 15:47:13,15.69926634,0.0002603,69.9989,335.5285,241.4657,118.6277,2.097e-05,2.31e-05,0.0,0 STARLINK-5815,1 55789U 23028BA  23126.65779358  .00002310  00000-0  20970-4 0  9991,2 55789  69.9989 335.5285 0002603 241.4657 118.6277 15.69926634 10708,6737.244,91.724,360.863,357.355,0.0
55789.0,STARLINK-5815,PAYLOAD,2023-05-06 21:54:14,15.69918581,0.0003684,69.998,334.8096,271.9028,88.1746,3.1372e-05,3.56e-05,0.0,0 STARLINK-5815,1 55789U 23028BA  23126.91266605  .00003560  00000-0  31372-4 0  9992,2 55789  69.9980 334.8096 0003684 271.9028  88.1746 15.69918581 10738,6737.267,91.725,361.614,356.65,0.0
55789.0,STARLINK-5815,PAYLOAD,2023-05-06 23:25:59,15.69919193,0.0003543,69.9971,334.6286,269.0,91.079,2.6445e-05,2.967e-05,0.0,0 STARLINK-5815,1 55789U 23028BA  23126.97638306  .00002967  00000-0  26445-4 0  9994,2 55789  69.9971 334.6286 0003543 269.0000  91.0790 15.69919193 10753,6737.265,91.724,361.517,356.743,0.0
55789.0,STARLINK-5815,PAYLOAD,2023-05-07 16:15:16,15.69923573,0.0003634,69.9972,332.658,264.3923,95.6858,-1.0658e-05,-1.494e-05,0.0,0 STARLINK-5815,1 55789U 23028BA  23127.67727402 -.00001494  00000-0 -10658-4 0  9993,2 55789  69.9972 332.6580 0003634 264.3923  95.6858 15.69923573 10855,6737.253,91.724,361.566,356.669,0.0
55789.0,STARLINK-5815,PAYLOAD,2023-05-08 01:25:45,15.69939838,0.0003586,69.9975,331.5839,267.5848,92.4937,1.0113e-05,1.004e-05,0.0,0 STARLINK-5815,1 55789U 23028BA  23128.05955896  .00001004  00000-0  10113-4 0  9997,2 55789  69.9975 331.5839 0003586 267.5848  92.4937 15.69939838 10911,6737.206,91.723,361.487,356.655,0.0
55789.0,STARLINK-5815,PAYLOAD,2023-05-08 19:46:47,15.69927967,0.0003876,69.9974,329.4351,264.8122,95.2632,1.7565e-05,1.9e-05,0.0,0 STARLINK-5815,1 55789U 23028BA  23128.82416460  .00001900  00000-0  17565-4 0  9994,2 55789  69.9974 329.4351 0003876 264.8122  95.2632 15.69927967 11039,6737.24,91.724,361.716,356.494,0.0
55789.0,STARLINK-5815,PAYLOAD,2023-05-08 21:18:32,15.69928403,0.0003714,69.9972,329.2548,265.2316,94.8455,1.6734e-05,1.8e-05,0.0,0 STARLINK-5815,1 55789U 23028BA  23128.88788095  .00001800  00000-0  16734-4 0  9992,2 55789  69.9972 329.2548 0003714 265.2316  94.8455 15.69928403 11050,6737.239,91.724,361.606,356.602,0.0
55789.0,STARLINK-5815,PAYLOAD,2023-05-09 14:07:49,15.69925784,0.0003758,69.9969,327.2853,265.4102,94.6665,6.019e-07,-1.41e-06,0.0,0 STARLINK-5815,1 55789U 23028BA  23129.58877135 -.00000141  00000-0  60190-6 0  9999,2 55789  69.9969 327.2853 0003758 265.4102  94.6665 15.69925784 11168,6737.246,91.724,361.643,356.579,0.0
55789.0,STARLINK-5815,PAYLOAD,2023-05-10 00:50:05,15.69920308,0.0003635,69.9989,326.0314,264.39,95.6881,1.0928e-05,1.101e-05,0.0,0 STARLINK-5815,1 55789U 23028BA  23130.03478942  .00001101  00000-0  10928-4 0  9992,2 55789  69.9989 326.0314 0003635 264.3900  95.6881 15.69920308 11233,6737.262,91.724,361.576,356.678,0.0
55789.0,STARLINK-5815,PAYLOAD,2023-05-10 16:07:36,15.69926992,0.0003937,69.9969,324.2391,264.0541,96.0206,5.6459e-06,4.66e-06,0.0,0 STARLINK-5815,1 55789U 23028BA  23130.67195204  .00000466  00000-0  56459-5 0  9992,2 55789  69.9969 324.2391 0003937 264.0541  96.0206 15.69926992 11320,6737.243,91.724,361.76,356.455,0.0
55789.0,STARLINK-5815,PAYLOAD,2023-05-10 22:14:36,15.69936893,0.0003672,69.9966,323.5226,267.2073,92.8702,1.6803e-05,1.809e-05,0.0,0 STARLINK-5815,1 55789U 23028BA  23130.92681044  .00001809  00000-0  16803-4 0  9992,2 55789  69.9966 323.5226 0003672 267.2073  92.8702 15.69936893 11367,6737.215,91.723,361.553,356.606,0.0
55789.0,STARLINK-5815,PAYLOAD,2023-05-11 05:53:23,15.69914303,0.0003493,69.9982,322.6271,267.1965,92.8831,2.2146e-06,5.3e-07,0.0,0 STARLINK-5815,1 55789U 23028BA  23131.24541163  .00000053  00000-0  22146-5 0  9993,2 55789  69.9982 322.6271 0003493 267.1965  92.8831 15.69914303 11416,6737.279,91.725,361.498,356.791,0.0
55789.0,STARLINK-5815,PAYLOAD,2023-05-11 15:03:54,15.69915473,0.0003401,69.9985,321.5521,267.8021,92.2786,-1.5425e-06,-3.98e-06,0.0,0 STARLINK-5815,1 55789U 23028BA  23131.62771367 -.00000398  00000-0 -15425-5 0  9992,2 55789  69.9985 321.5521 0003401 267.8021  92.2786 15.69915473 11483,6737.276,91.725,361.432,356.849,0.0
55789.0,STARLINK-5815,PAYLOAD,2023-05-11 21:10:53,15.69932899,0.0002993,69.9985,320.8374,266.4014,93.684,5.1283e-06,4.04e-06,0.0,0 STARLINK-5815,1 55789U 23028BA  23131.88256931  .00000404  00000-0  51283-5 0  9993,2 55789  69.9985 320.8374 0002993 266.4014  93.6840 15.69932899 11514,6737.226,91.724,361.107,357.075,0.0
55789.0,STARLINK-5815,PAYLOAD,2023-05-11 22:42:39,15.6993179,0.0003389,69.9961,320.6539,265.2162,94.8646,6.3714e-06,5.54e-06,0.0,0 STARLINK-5815,1 55789U 23028BA  23131.94628525  .00000554  00000-0  63714-5 0  9990,2 55789  69.9961 320.6539 0003389 265.2162  94.8646 15.69931790 11538,6737.229,91.724,361.377,356.811,0.0
55789.0,STARLINK-5815,PAYLOAD,2023-05-12 15:31:55,15.69930073,0.0003368,69.9963,318.6829,264.2024,95.8788,5.0153e-06,3.9e-06,0.0,0 STARLINK-5815,1 55789U 23028BA  23132.64717010  .00000390  00000-0  50153-5 0  9997,2 55789  69.9963 318.6829 0003368 264.2024  95.8788 15.69930073 11634,6737.234,91.724,361.368,356.83,0.0
55789.0,STARLINK-5815,PAYLOAD,2023-05-13 05:17:42,15.69912554,0.0003327,69.9985,317.0739,268.1261,91.9554,1.2613e-05,1.303e-05,0.0,0 STARLINK-5815,1 55789U 23028BA  23133.22063086  .00001303  00000-0  12613-4 0  9992,2 55789  69.9985 317.0739 0003327 268.1261  91.9554 15.69912554 11724,6737.284,91.725,361.391,356.908,0.0
55789.0,STARLINK-5815,PAYLOAD,2023-05-13 12:56:28,15.69915642,0.0002963,69.9991,316.1804,260.7989,99.2871,1.7701e-06,0.0,0.0,0 STARLINK-5815,1 55789U 23028BA  23133.53921749  .00000000  00000-0  17701-5 0  9992,2 55789  69.9991 316.1804 0002963 260.7989  99.2871 15.69915642 11784,6737.275,91.725,361.137,357.144,0.0
55789.0,STARLINK-5815,PAYLOAD,2023-05-13 20:35:13,15.69925244,0.0003241,69.9992,315.2847,259.1192,100.9639,1.4104e-05,1.484e-05,0.0,0 STARLINK-5815,1 55789U 23028BA  23133.85779358  .00001484  00000-0  14104-4 0  9994,2 55789  69.9992 315.2847 0003241 259.1192 100.9639 15.69925244 11837,6737.248,91.724,361.296,356.929,0.0
55789.0,STARLINK-5815,PAYLOAD,2023-05-13 23:38:43,15.69934258,0.0003432,69.9996,314.9233,268.2869,91.7933,2.1596e-05,2.386e-05,0.0,0 STARLINK-5815,1 55789U 23028BA  23133.98522159  .00002386  00000-0  21596-4 0  9998,2 55789  69.9996 314.9233 0003432 268.2869  91.7933 15.69934258 11840,6737.222,91.724,361.399,356.775,0.0
55789.0,STARLINK-5815,PAYLOAD,2023-05-14 11:52:44,15.69928154,0.000359,69.9999,313.491,266.4845,93.594,7.4899e-06,6.88e-06,0.0,0 STARLINK-5815,1 55789U 23028BA  23134.49495593  .00000688  00000-0  74899-5 0  9994,2 55789  69.9999 313.4910 0003590 266.4845  93.5940 15.69928154 11923,6737.24,91.724,361.523,356.686,0.0
55789.0,STARLINK-5815,PAYLOAD,2023-05-14 13:24:29,15.69931115,0.0003302,70.0006,313.3122,267.2024,92.8794,1.6824e-05,1.811e-05,0.0,0 STARLINK-5815,1 55789U 23028BA  23134.55867153  .00001811  00000-0  16824-4 0  9998,2 55789  70.0006 313.3122 0003302 267.2024  92.8794 15.69931115 11940,6737.231,91.724,361.321,356.871,0.0
